{
  "norad_id": 63250,
  "name": "EZIE-B",
  "history": [
    {
      "epoch": "2026-04-11T11:03:24.955200Z",
      "apogee_km": 580.7359822271101,
      "perigee_km": 573.1827475748287,
      "latitude_deg": 5.155238124481686e-05,
      "longitude_deg": -10.780856960899783,
      "height_km": 578.5187008727095,
      "semi_major_axis_km": 6955.096364900969,
      "eccentricity": 0.000543,
      "inclination_deg": 97.6984,
      "raan_deg": 354.753,
      "arg_perigee_deg": 66.9041,
      "mean_anomaly_deg": 293.2753,
      "mean_motion_rev_day": 14.96745753
    },
    {
      "epoch": "2026-04-12T12:43:42.369600Z",
      "apogee_km": 580.6783686900026,
      "perigee_km": 573.188453364367,
      "latitude_deg": -7.12607917431543e-05,
      "longitude_deg": -35.85489276601399,
      "height_km": 578.3212830050192,
      "semi_major_axis_km": 6955.0704110271845,
      "eccentricity": 0.00053845,
      "inclination_deg": 97.6988,
      "raan_deg": 355.8058,
      "arg_perigee_deg": 63.8027,
      "mean_anomaly_deg": 296.3747,
      "mean_motion_rev_day": 14.96754131
    },
    {
      "epoch": "2026-04-14T14:27:59.988960Z",
      "apogee_km": 580.478928488963,
      "perigee_km": 573.3221948380124,
      "latitude_deg": -3.2280112550978895e-05,
      "longitude_deg": -61.931287171790196,
      "height_km": 578.0398248625139,
      "semi_major_axis_km": 6955.037561663487,
      "eccentricity": 0.0005145,
      "inclination_deg": 97.6988,
      "raan_deg": 357.8455,
      "arg_perigee_deg": 57.8756,
      "mean_anomaly_deg": 302.2964,
      "mean_motion_rev_day": 14.96764735
    },
    {
      "epoch": "2026-04-15T14:32:00.409056Z",
      "apogee_km": 580.3586660271367,
      "perigee_km": 573.4175509688548,
      "latitude_deg": -5.940689302286871e-05,
      "longitude_deg": -62.93441978519946,
      "height_km": 577.9161367471487,
      "semi_major_axis_km": 6955.0251084979955,
      "eccentricity": 0.000499,
      "inclination_deg": 97.6985,
      "raan_deg": 358.8325,
      "arg_perigee_deg": 54.5141,
      "mean_anomaly_deg": 305.6545,
      "mean_motion_rev_day": 14.96768755
    },
    {
      "epoch": "2026-04-16T14:36:00.696096Z",
      "apogee_km": 580.2646682137365,
      "perigee_km": 573.4835323909429,
      "latitude_deg": 2.9448718390036084e-05,
      "longitude_deg": -63.937211944737236,
      "height_km": 577.8031088406005,
      "semi_major_axis_km": 6955.011100302339,
      "eccentricity": 0.0004875,
      "inclination_deg": 97.698,
      "raan_deg": 359.8193,
      "arg_perigee_deg": 51.4243,
      "mean_anomaly_deg": 308.7415,
      "mean_motion_rev_day": 14.96773277
    },
    {
      "epoch": "2026-04-17T22:41:20.711040Z",
      "apogee_km": 580.1796949926338,
      "perigee_km": 573.5261343408692,
      "latitude_deg": -3.265122400412663e-05,
      "longitude_deg": 174.72735862810416,
      "height_km": 577.664137518923,
      "semi_major_axis_km": 6954.989914666751,
      "eccentricity": 0.00047833,
      "inclination_deg": 97.6973,
      "raan_deg": 1.1351,
      "arg_perigee_deg": 47.8501,
      "mean_anomaly_deg": 312.3126,
      "mean_motion_rev_day": 14.96780116
    },
    {
      "epoch": "2026-04-18T14:44:00.469248Z",
      "apogee_km": 580.1104968675145,
      "perigee_km": 573.5700362460448,
      "latitude_deg": 8.650112735281328e-05,
      "longitude_deg": -65.93943569062036,
      "height_km": 577.5976819884231,
      "semi_major_axis_km": 6954.977266556779,
      "eccentricity": 0.0004702,
      "inclination_deg": 97.6968,
      "raan_deg": 1.7929,
      "arg_perigee_deg": 45.6341,
      "mean_anomaly_deg": 314.5266,
      "mean_motion_rev_day": 14.96784199
    },
    {
      "epoch": "2026-04-19T09:59:11.921280Z",
      "apogee_km": 580.0350858406837,
      "perigee_km": 573.6070354027352,
      "latitude_deg": -4.022017508128696e-05,
      "longitude_deg": 5.261463962997087,
      "height_km": 577.5395804178376,
      "semi_major_axis_km": 6954.95806062171,
      "eccentricity": 0.00046212,
      "inclination_deg": 97.6964,
      "raan_deg": 2.5822,
      "arg_perigee_deg": 43.6407,
      "mean_anomaly_deg": 316.5179,
      "mean_motion_rev_day": 14.96790399
    },
    {
      "epoch": "2026-04-20T11:39:26.829216Z",
      "apogee_km": 579.9120306854893,
      "perigee_km": 573.6891698170411,
      "latitude_deg": 4.638804335011784e-05,
      "longitude_deg": -19.802528498402957,
      "height_km": 577.4830204408383,
      "semi_major_axis_km": 6954.9376002512645,
      "eccentricity": 0.00044737,
      "inclination_deg": 97.6957,
      "raan_deg": 3.6346,
      "arg_perigee_deg": 40.5958,
      "mean_anomaly_deg": 319.5597,
      "mean_motion_rev_day": 14.96797004
    },
    {
      "epoch": "2026-04-21T13:19:41.120256Z",
      "apogee_km": 579.8132199091096,
      "perigee_km": 573.7304566391549,
      "latitude_deg": 4.105321284573511e-05,
      "longitude_deg": -44.86413194809748,
      "height_km": 577.4259486246061,
      "semi_major_axis_km": 6954.908838274132,
      "eccentricity": 0.0004373,
      "inclination_deg": 97.6953,
      "raan_deg": 4.6868,
      "arg_perigee_deg": 38.1635,
      "mean_anomaly_deg": 321.9896,
      "mean_motion_rev_day": 14.96806289
    },
    {
      "epoch": "2026-04-22T03:46:03.944640Z",
      "apogee_km": 579.7615977716332,
      "perigee_km": 573.7545158131807,
      "latitude_deg": -3.0256606836581988e-05,
      "longitude_deg": 98.53965817272982,
      "height_km": 577.4073320121431,
      "semi_major_axis_km": 6954.895056792407,
      "eccentricity": 0.00043186,
      "inclination_deg": 97.6952,
      "raan_deg": 5.2787,
      "arg_perigee_deg": 37.0763,
      "mean_anomaly_deg": 323.0756,
      "mean_motion_rev_day": 14.96810738
    }
  ]
}